[
	{
		"OBJECT_NAME": "STARLINK-5914",
		"OBJECT_ID": "2023-037AD",
		"EPOCH": "2024-11-03T14:00:32.740128",
		"MEAN_MOTION": 14.98331027,
		"ECCENTRICITY": 0.0003246,
		"INCLINATION": 70.0007,
		"RA_OF_ASC_NODE": 82.8551,
		"ARG_OF_PERICENTER": 268.6959,
		"MEAN_ANOMALY": 91.3828,
		"EPHEMERIS_TYPE": 0,
		"CLASSIFICATION_TYPE": "U",
		"NORAD_CAT_ID": 55941,
		"ELEMENT_SET_NO": 999,
		"REV_AT_EPOCH": 9041,
		"BSTAR": -1.7556e-6,
		"MEAN_MOTION_DOT": -1.14e-6,
		"MEAN_MOTION_DDOT": 0
	},
	{
		"OBJECT_NAME": "STARLINK-5917",
		"OBJECT_ID": "2023-037AE",
		"EPOCH": "2024-11-03T14:24:30.925152",
		"MEAN_MOTION": 14.98331968,
		"ECCENTRICITY": 0.0003092,
		"INCLINATION": 70.001,
		"RA_OF_ASC_NODE": 82.5101,
		"ARG_OF_PERICENTER": 272.5545,
		"MEAN_ANOMALY": 87.526,
		"EPHEMERIS_TYPE": 0,
		"CLASSIFICATION_TYPE": "U",
		"NORAD_CAT_ID": 55942,
		"ELEMENT_SET_NO": 999,
		"REV_AT_EPOCH": 9042,
		"BSTAR": -0.00016056,
		"MEAN_MOTION_DOT": -2.008e-5,
		"MEAN_MOTION_DDOT": 0
	},
	{
		"OBJECT_NAME": "STARLINK-5932",
		"OBJECT_ID": "2023-037AF",
		"EPOCH": "2024-11-03T14:36:35.289792",
		"MEAN_MOTION": 14.98316794,
		"ECCENTRICITY": 0.0002805,
		"INCLINATION": 69.9994,
		"RA_OF_ASC_NODE": 82.5338,
		"ARG_OF_PERICENTER": 273.5312,
		"MEAN_ANOMALY": 86.5526,
		"EPHEMERIS_TYPE": 0,
		"CLASSIFICATION_TYPE": "U",
		"NORAD_CAT_ID": 55943,
		"ELEMENT_SET_NO": 999,
		"REV_AT_EPOCH": 9042,
		"BSTAR": -7.3347e-5,
		"MEAN_MOTION_DOT": -9.68e-6,
		"MEAN_MOTION_DDOT": 0
	},
	{
		"OBJECT_NAME": "STARLINK-5926",
		"OBJECT_ID": "2023-037AG",
		"EPOCH": "2024-11-03T14:30:31.990752",
		"MEAN_MOTION": 14.98342859,
		"ECCENTRICITY": 0.0003268,
		"INCLINATION": 69.9987,
		"RA_OF_ASC_NODE": 82.5237,
		"ARG_OF_PERICENTER": 275.839,
		"MEAN_ANOMALY": 84.2397,
		"EPHEMERIS_TYPE": 0,
		"CLASSIFICATION_TYPE": "U",
		"NORAD_CAT_ID": 55944,
		"ELEMENT_SET_NO": 999,
		"REV_AT_EPOCH": 9042,
		"BSTAR": 0.00015372,
		"MEAN_MOTION_DOT": 1.742e-5,
		"MEAN_MOTION_DDOT": 0
	},
	{
		"OBJECT_NAME": "STARLINK-5925",
		"OBJECT_ID": "2023-037AH",
		"EPOCH": "2024-11-03T14:42:47.410272",
		"MEAN_MOTION": 14.98346236,
		"ECCENTRICITY": 0.0003399,
		"INCLINATION": 70.0006,
		"RA_OF_ASC_NODE": 82.5561,
		"ARG_OF_PERICENTER": 268.8981,
		"MEAN_ANOMALY": 91.1788,
		"EPHEMERIS_TYPE": 0,
		"CLASSIFICATION_TYPE": "U",
		"NORAD_CAT_ID": 55945,
		"ELEMENT_SET_NO": 999,
		"REV_AT_EPOCH": 9042,
		"BSTAR": 0.00021752,
		"MEAN_MOTION_DOT": 2.504e-5,
		"MEAN_MOTION_DDOT": 0
	},
	{
		"OBJECT_NAME": "STARLINK-5857",
		"OBJECT_ID": "2023-037AJ",
		"EPOCH": "2024-11-03T14:42:33.107616",
		"MEAN_MOTION": 14.98342225,
		"ECCENTRICITY": 0.0003262,
		"INCLINATION": 69.9992,
		"RA_OF_ASC_NODE": 82.5551,
		"ARG_OF_PERICENTER": 273.8168,
		"MEAN_ANOMALY": 86.2618,
		"EPHEMERIS_TYPE": 0,
		"CLASSIFICATION_TYPE": "U",
		"NORAD_CAT_ID": 55946,
		"ELEMENT_SET_NO": 999,
		"REV_AT_EPOCH": 9042,
		"BSTAR": 0.00013518,
		"MEAN_MOTION_DOT": 1.521e-5,
		"MEAN_MOTION_DDOT": 0
	},
	{
		"OBJECT_NAME": "STARLINK-5851",
		"OBJECT_ID": "2023-037AK",
		"EPOCH": "2024-11-03T14:18:46.951200",
		"MEAN_MOTION": 14.98328943,
		"ECCENTRICITY": 0.0002811,
		"INCLINATION": 70.0007,
		"RA_OF_ASC_NODE": 82.4965,
		"ARG_OF_PERICENTER": 251.4895,
		"MEAN_ANOMALY": 108.5959,
		"EPHEMERIS_TYPE": 0,
		"CLASSIFICATION_TYPE": "U",
		"NORAD_CAT_ID": 55947,
		"ELEMENT_SET_NO": 999,
		"REV_AT_EPOCH": 9042,
		"BSTAR": 0.00010433,
		"MEAN_MOTION_DOT": 1.152e-5,
		"MEAN_MOTION_DDOT": 0
	},
	{
		"OBJECT_NAME": "STARLINK-5900",
		"OBJECT_ID": "2023-037AL",
		"EPOCH": "2024-11-03T13:30:22.356864",
		"MEAN_MOTION": 14.98340833,
		"ECCENTRICITY": 0.0002761,
		"INCLINATION": 70.001,
		"RA_OF_ASC_NODE": 62.9012,
		"ARG_OF_PERICENTER": 268.0496,
		"MEAN_ANOMALY": 92.0347,
		"EPHEMERIS_TYPE": 0,
		"CLASSIFICATION_TYPE": "U",
		"NORAD_CAT_ID": 55948,
		"ELEMENT_SET_NO": 999,
		"REV_AT_EPOCH": 9090,
		"BSTAR": 9.729e-5,
		"MEAN_MOTION_DOT": 1.068e-5,
		"MEAN_MOTION_DDOT": 0
	},
	{
		"OBJECT_NAME": "STARLINK-5899",
		"OBJECT_ID": "2023-037AM",
		"EPOCH": "2024-11-03T13:36:11.751552",
		"MEAN_MOTION": 14.98311764,
		"ECCENTRICITY": 0.0003132,
		"INCLINATION": 70.0028,
		"RA_OF_ASC_NODE": 62.9152,
		"ARG_OF_PERICENTER": 276.0227,
		"MEAN_ANOMALY": 84.0575,
		"EPHEMERIS_TYPE": 0,
		"CLASSIFICATION_TYPE": "U",
		"NORAD_CAT_ID": 55949,
		"ELEMENT_SET_NO": 999,
		"REV_AT_EPOCH": 9090,
		"BSTAR": 0.00047495,
		"MEAN_MOTION_DOT": 5.576e-5,
		"MEAN_MOTION_DDOT": 0
	},
	{
		"OBJECT_NAME": "STARLINK-5911",
		"OBJECT_ID": "2023-037AN",
		"EPOCH": "2024-11-03T14:54:14.865696",
		"MEAN_MOTION": 14.98345649,
		"ECCENTRICITY": 0.0003307,
		"INCLINATION": 70.0004,
		"RA_OF_ASC_NODE": 62.7039,
		"ARG_OF_PERICENTER": 269.1181,
		"MEAN_ANOMALY": 90.96,
		"EPHEMERIS_TYPE": 0,
		"CLASSIFICATION_TYPE": "U",
		"NORAD_CAT_ID": 55950,
		"ELEMENT_SET_NO": 999,
		"REV_AT_EPOCH": 9091,
		"BSTAR": 0.00040596,
		"MEAN_MOTION_DOT": 4.756e-5,
		"MEAN_MOTION_DDOT": 0
	},
	{
		"OBJECT_NAME": "STARLINK-5908",
		"OBJECT_ID": "2023-037AP",
		"EPOCH": "2024-11-03T14:18:32.203584",
		"MEAN_MOTION": 14.98357291,
		"ECCENTRICITY": 0.000341,
		"INCLINATION": 70.0013,
		"RA_OF_ASC_NODE": 82.4948,
		"ARG_OF_PERICENTER": 270.8247,
		"MEAN_ANOMALY": 89.2521,
		"EPHEMERIS_TYPE": 0,
		"CLASSIFICATION_TYPE": "U",
		"NORAD_CAT_ID": 55951,
		"ELEMENT_SET_NO": 999,
		"REV_AT_EPOCH": 9042,
		"BSTAR": 0.0010846,
		"MEAN_MOTION_DOT": 0.00012881,
		"MEAN_MOTION_DDOT": 0
	},
	{
		"OBJECT_NAME": "STARLINK-5893",
		"OBJECT_ID": "2023-037AQ",
		"EPOCH": "2024-11-03T13:24:22.731552",
		"MEAN_MOTION": 14.98382474,
		"ECCENTRICITY": 0.0002987,
		"INCLINATION": 70.0024,
		"RA_OF_ASC_NODE": 62.8878,
		"ARG_OF_PERICENTER": 272.4458,
		"MEAN_ANOMALY": 87.6359,
		"EPHEMERIS_TYPE": 0,
		"CLASSIFICATION_TYPE": "U",
		"NORAD_CAT_ID": 55952,
		"ELEMENT_SET_NO": 999,
		"REV_AT_EPOCH": 9090,
		"BSTAR": 0.0014363,
		"MEAN_MOTION_DOT": 0.0001711,
		"MEAN_MOTION_DDOT": 0
	},
	{
		"OBJECT_NAME": "STARLINK-5889",
		"OBJECT_ID": "2023-037AR",
		"EPOCH": "2024-11-03T13:42:10.315872",
		"MEAN_MOTION": 14.98337507,
		"ECCENTRICITY": 0.000304,
		"INCLINATION": 70.0003,
		"RA_OF_ASC_NODE": 62.9304,
		"ARG_OF_PERICENTER": 270.3358,
		"MEAN_ANOMALY": 89.7453,
		"EPHEMERIS_TYPE": 0,
		"CLASSIFICATION_TYPE": "U",
		"NORAD_CAT_ID": 55953,
		"ELEMENT_SET_NO": 999,
		"REV_AT_EPOCH": 9090,
		"BSTAR": 3.2483e-5,
		"MEAN_MOTION_DOT": 2.95e-6,
		"MEAN_MOTION_DDOT": 0
	},
	{
		"OBJECT_NAME": "STARLINK-5892",
		"OBJECT_ID": "2023-037AS",
		"EPOCH": "2024-11-03T14:18:13.072032",
		"MEAN_MOTION": 14.98337211,
		"ECCENTRICITY": 0.00032,
		"INCLINATION": 69.9996,
		"RA_OF_ASC_NODE": 62.6152,
		"ARG_OF_PERICENTER": 272.3707,
		"MEAN_ANOMALY": 87.7086,
		"EPHEMERIS_TYPE": 0,
		"CLASSIFICATION_TYPE": "U",
		"NORAD_CAT_ID": 55954,
		"ELEMENT_SET_NO": 999,
		"REV_AT_EPOCH": 9091,
		"BSTAR": -9.0104e-5,
		"MEAN_MOTION_DOT": -1.168e-5,
		"MEAN_MOTION_DDOT": 0
	},
	{
		"OBJECT_NAME": "STARLINK-5878",
		"OBJECT_ID": "2023-037AT",
		"EPOCH": "2024-11-03T14:42:12.069216",
		"MEAN_MOTION": 14.98359924,
		"ECCENTRICITY": 0.0002747,
		"INCLINATION": 70.0009,
		"RA_OF_ASC_NODE": 62.6738,
		"ARG_OF_PERICENTER": 263.0793,
		"MEAN_ANOMALY": 97.0054,
		"EPHEMERIS_TYPE": 0,
		"CLASSIFICATION_TYPE": "U",
		"NORAD_CAT_ID": 55955,
		"ELEMENT_SET_NO": 999,
		"REV_AT_EPOCH": 9091,
		"BSTAR": 0.00037799,
		"MEAN_MOTION_DOT": 4.423e-5,
		"MEAN_MOTION_DDOT": 0
	}
]
