STARLINK-5914           
1 55941U 23037AD  24308.58371227 -.00000114  00000+0 -17556-5 0  9997
2 55941  70.0007  82.8551 0003246 268.6959  91.3828 14.98331027 90412
STARLINK-5917           
1 55942U 23037AE  24308.60035793 -.00002008  00000+0 -16056-3 0  9992
2 55942  70.0010  82.5101 0003092 272.5545  87.5260 14.98331968 90421
STARLINK-5932           
1 55943U 23037AF  24308.60874178 -.00000968  00000+0 -73347-4 0  9991
2 55943  69.9994  82.5338 0002805 273.5312  86.5526 14.98316794 90420
STARLINK-5926           
1 55944U 23037AG  24308.60453693  .00001742  00000+0  15372-3 0  9999
2 55944  69.9987  82.5237 0003268 275.8390  84.2397 14.98342859 90428
STARLINK-5925           
1 55945U 23037AH  24308.61304873  .00002504  00000+0  21752-3 0  9992
2 55945  70.0006  82.5561 0003399 268.8981  91.1788 14.98346236 90421
STARLINK-5857           
1 55946U 23037AJ  24308.61288319  .00001521  00000+0  13518-3 0  9998
2 55946  69.9992  82.5551 0003262 273.8168  86.2618 14.98342225 90425
STARLINK-5851           
1 55947U 23037AK  24308.59637675  .00001152  00000+0  10433-3 0  9992
2 55947  70.0007  82.4965 0002811 251.4895 108.5959 14.98328943 90429
STARLINK-5900           
1 55948U 23037AL  24308.56275876  .00001068  00000+0  97290-4 0  9994
2 55948  70.0010  62.9012 0002761 268.0496  92.0347 14.98340833 90908
STARLINK-5899           
1 55949U 23037AM  24308.56680268  .00005576  00000+0  47495-3 0  9999
2 55949  70.0028  62.9152 0003132 276.0227  84.0575 14.98311764 90902
STARLINK-5911           
1 55950U 23037AN  24308.62100539  .00004756  00000+0  40596-3 0  9990
2 55950  70.0004  62.7039 0003307 269.1181  90.9600 14.98345649 90911
STARLINK-5908           
1 55951U 23037AP  24308.59620606  .00012881  00000+0  10846-2 0  9991
2 55951  70.0013  82.4948 0003410 270.8247  89.2521 14.98357291 90422
STARLINK-5893           
1 55952U 23037AQ  24308.55859643  .00017110  00000+0  14363-2 0  9991
2 55952  70.0024  62.8878 0002987 272.4458  87.6359 14.98382474 90904
STARLINK-5889           
1 55953U 23037AR  24308.57095273  .00000295  00000+0  32483-4 0  9996
2 55953  70.0003  62.9304 0003040 270.3358  89.7453 14.98337507 90909
STARLINK-5892           
1 55954U 23037AS  24308.59598463 -.00001168  00000+0 -90104-4 0  9994
2 55954  69.9996  62.6152 0003200 272.3707  87.7086 14.98337211 90917
STARLINK-5878           
1 55955U 23037AT  24308.61263969  .00004423  00000+0  37799-3 0  9993
2 55955  70.0009  62.6738 0002747 263.0793  97.0054 14.98359924 90917
